STARLINK-30869          
1 58437U 23183A   26068.27736138 -.00000639  00000+0 -14149-4 0  9995
2 58437  43.0025  43.7449 0001511 264.8009  95.2670 15.26740225126676
TRANSPORTER-14 OBJECT AC
1 64554U 25135AC  26068.82113864  .00024574  00000+0  93234-3 0  9990
2 64554  97.4518 185.7428 0001008 268.0523  92.0600 15.26845403 39827
